NORAD_CAT_ID,OBJECT_NAME,OBJECT_TYPE,EPOCH,MEAN_MOTION,ECCENTRICITY,INCLINATION,RA_OF_ASC_NODE,ARG_OF_PERICENTER,MEAN_ANOMALY,BSTAR,MEAN_MOTION_DOT,MEAN_MOTION_DDOT,TLE_LINE0,TLE_LINE1,TLE_LINE2,SEMIMAJOR_AXIS,PERIOD,APOGEE,PERIGEE,DECAYED
49411.0,STARLINK-3162,PAYLOAD,2023-12-03 04:12:55,15.08828021,0.0001793,53.2169,333.979,104.1594,255.9598,-0.00016199,-2.864e-05,0.0,0 STARLINK-3162,1 49411U 21104D   23337.17564099 -.00002864  00000-0 -16199-3 0  9997,2 49411  53.2169 333.9790 0001793 104.1594 255.9598 15.08828021114920,6917.917,95.438,541.022,538.542,0.0
49411.0,STARLINK-3162,PAYLOAD,2023-12-03 07:23:42,15.08806427,0.0001766,53.2174,333.386,74.2008,285.9178,-0.00068171,-0.00011111,0.0,0 STARLINK-3162,1 49411U 21104D   23337.30812582 -.00011111  00000-0 -68171-3 0  9997,2 49411  53.2174 333.3860 0001766  74.2008 285.9178 15.08806427114940,6917.983,95.44,541.07,538.626,0.0
49411.0,STARLINK-3162,PAYLOAD,2023-12-04 04:03:43,15.08832871,0.0001886,53.218,329.5156,85.7453,274.3754,0.0019491,0.00030862,0.0,0 STARLINK-3162,1 49411U 21104D   23338.16925444  .00030862  00000-0  19491-2 0  9996,2 49411  53.2180 329.5156 0001886  85.7453 274.3754 15.08832871115075,6917.902,95.438,541.072,538.462,0.0
49411.0,STARLINK-3162,PAYLOAD,2023-12-04 08:49:52,15.08850163,0.0002022,53.2172,328.6221,78.6045,281.5174,0.002324,0.00036903,0.0,0 STARLINK-3162,1 49411U 21104D   23338.36797377  .00036903  00000-0  23240-2 0  9999,2 49411  53.2172 328.6221 0002022  78.6045 281.5174 15.08850163114024,6917.849,95.437,541.113,538.316,0.0
49411.0,STARLINK-3162,PAYLOAD,2023-12-05 03:54:29,15.08863255,0.0001981,53.2167,325.0564,90.0286,270.0933,0.00096346,0.00015088,0.0,0 STARLINK-3162,1 49411U 21104D   23339.16284133  .00015088  00000-0  96346-3 0  9998,2 49411  53.2167 325.0564 0001981  90.0286 270.0933 15.08863255115222,6917.809,95.436,541.045,538.304,0.0
49411.0,STARLINK-3162,PAYLOAD,2023-12-05 05:29:52,15.08866042,0.0001993,53.2164,324.7579,101.1791,258.9425,0.00065434,0.00010149,0.0,0 STARLINK-3162,1 49411U 21104D   23339.22907876  .00010149  00000-0  65434-3 0  9998,2 49411  53.2164 324.7579 0001993 101.1791 258.9425 15.08866042114158,6917.801,95.436,541.045,538.287,0.0
49411.0,STARLINK-3162,PAYLOAD,2023-12-06 03:45:15,15.08859716,0.0002165,53.217,320.5935,103.7262,256.3971,0.00068141,0.00010579,0.0,0 STARLINK-3162,1 49411U 21104D   23340.15643456  .00010579  00000-0  68141-3 0  9998,2 49411  53.2170 320.5935 0002165 103.7262 256.3971 15.08859716115371,6917.82,95.436,541.183,538.187,0.0
49411.0,STARLINK-3162,PAYLOAD,2023-12-06 05:20:39,15.08853144,0.0002411,53.2169,320.3001,80.5042,279.6223,0.0002021,2.931e-05,0.0,0 STARLINK-3162,1 49411U 21104D   23340.22267701  .00002931  00000-0  20210-3 0  9999,2 49411  53.2169 320.3001 0002411  80.5042 279.6223 15.08853144115381,6917.84,95.437,541.373,538.037,0.0
49411.0,STARLINK-3162,PAYLOAD,2023-12-07 03:36:03,15.08838393,0.000197,53.2167,316.1356,90.5783,269.5435,0.00019506,2.817e-05,0.0,0 STARLINK-3162,1 49411U 21104D   23341.15003920  .00002817  00000-0  19506-3 0  9992,2 49411  53.2167 316.1356 0001970  90.5783 269.5435 15.08838393115525,6917.885,95.438,541.113,538.387,0.0
49411.0,STARLINK-3162,PAYLOAD,2023-12-07 08:22:12,15.08838692,0.0001917,53.2165,315.2432,90.8356,269.2855,0.0002478,3.658e-05,0.0,0 STARLINK-3162,1 49411U 21104D   23341.34876011  .00003658  00000-0  24780-3 0  9996,2 49411  53.2165 315.2432 0001917  90.8356 269.2855 15.08838692114476,6917.884,95.438,541.076,538.423,0.0
49411.0,STARLINK-3162,PAYLOAD,2023-12-08 03:26:50,15.08837981,0.0002002,53.2172,311.672,96.2337,263.8883,9.3133e-05,1.194e-05,0.0,0 STARLINK-3162,1 49411U 21104D   23342.14364397  .00001194  00000-0  93133-4 0  9996,2 49411  53.2172 311.6720 0002002  96.2337 263.8883 15.08837981115673,6917.887,95.438,541.137,538.367,0.0
49411.0,STARLINK-3162,PAYLOAD,2023-12-08 05:02:13,15.08838144,0.000201,53.2173,311.3746,95.5866,264.5355,7.8496e-05,9.61e-06,0.0,0 STARLINK-3162,1 49411U 21104D   23342.20988398  .00000961  00000-0  78496-4 0  9992,2 49411  53.2173 311.3746 0002010  95.5866 264.5355 15.08838144114603,6917.886,95.438,541.142,538.361,0.0
49411.0,STARLINK-3162,PAYLOAD,2023-12-08 22:31:28,15.08844074,0.0001992,53.2172,308.1032,95.9682,264.1537,0.00024641,3.636e-05,0.0,0 STARLINK-3162,1 49411U 21104D   23342.93852268  .00003636  00000-0  24641-3 0  9992,2 49411  53.2172 308.1032 0001992  95.9682 264.1537 15.08844074114711,6917.868,95.437,541.111,538.355,0.0
49411.0,STARLINK-3162,PAYLOAD,2023-12-09 04:53:00,15.08851717,0.0002007,53.2171,306.9141,90.4738,269.6484,0.00034774,5.252e-05,0.0,0 STARLINK-3162,1 49411U 21104D   23343.20347940  .00005252  00000-0  34774-3 0  9993,2 49411  53.2171 306.9141 0002007  90.4738 269.6484 15.08851717115834,6917.845,95.437,541.098,538.321,0.0
49411.0,STARLINK-3162,PAYLOAD,2023-12-10 07:54:34,15.08839283,0.0002242,53.2174,301.8658,118.8302,241.2916,-1.2103e-05,-4.81e-06,0.0,0 STARLINK-3162,1 49411U 21104D   23344.32956200 -.00000481  00000-0 -12103-4 0  9996,2 49411  53.2174 301.8658 0002242 118.8302 241.2916 15.08839283116007,6917.883,95.438,541.299,538.197,0.0
49411.0,STARLINK-3162,PAYLOAD,2023-12-11 04:34:35,15.0884207,0.0001945,53.2168,297.995,85.9168,274.2046,3.6996e-05,3.01e-06,0.0,0 STARLINK-3162,1 49411U 21104D   23345.19068546  .00000301  00000-0  36996-4 0  9994,2 49411  53.2168 297.9950 0001945  85.9168 274.2046 15.08842070115055,6917.874,95.437,541.085,538.394,0.0
49411.0,STARLINK-3162,PAYLOAD,2023-12-12 02:49:59,15.08840496,0.0002058,53.2184,293.8323,74.4215,285.7004,0.00016849,2.394e-05,0.0,0 STARLINK-3162,1 49411U 21104D   23346.11804962  .00002394  00000-0  16849-3 0  9995,2 49411  53.2184 293.8323 0002058  74.4215 285.7004 15.08840496116270,6917.879,95.438,541.168,538.32,0.0
49411.0,STARLINK-3162,PAYLOAD,2023-12-12 04:25:22,15.08842308,0.0002132,53.218,293.5357,71.5311,288.5912,0.00020182,2.925e-05,0.0,0 STARLINK-3162,1 49411U 21104D   23346.18428971  .00002925  00000-0  20182-3 0  9999,2 49411  53.2180 293.5357 0002132  71.5311 288.5912 15.08842308115203,6917.873,95.437,541.213,538.263,0.0
49411.0,STARLINK-3162,PAYLOAD,2023-12-13 02:40:46,15.08848435,0.0002087,53.2184,289.3716,74.8363,285.286,0.00022083,3.229e-05,0.0,0 STARLINK-3162,1 49411U 21104D   23347.11164695  .00003229  00000-0  22083-3 0  9993,2 49411  53.2184 289.3716 0002087  74.8363 285.2860 15.08848435115349,6917.855,95.437,541.163,538.276,0.0
49411.0,STARLINK-3162,PAYLOAD,2023-12-14 02:31:33,15.0884684,0.0001805,53.2163,284.9178,89.363,270.7569,0.00012027,1.627e-05,0.0,0 STARLINK-3162,1 49411U 21104D   23348.10524458  .00001627  00000-0  12027-3 0  9997,2 49411  53.2163 284.9178 0001805  89.3630 270.7569 15.08846840116573,6917.859,95.437,540.973,538.476,0.0
49411.0,STARLINK-3162,PAYLOAD,2023-12-15 02:22:20,15.08842592,0.0001999,53.2173,280.4552,103.9487,256.1727,7.5794e-05,9.18e-06,0.0,0 STARLINK-3162,1 49411U 21104D   23349.09884415  .00000918  00000-0  75794-4 0  9991,2 49411  53.2173 280.4552 0001999 103.9487 256.1727 15.08842592116729,6917.872,95.437,541.12,538.355,0.0
49411.0,STARLINK-3162,PAYLOAD,2023-12-15 23:02:21,15.0883196,0.0001803,53.2194,276.5895,122.3949,237.7218,3.5778e-06,-2.31e-06,0.0,0 STARLINK-3162,1 49411U 21104D   23349.95997376 -.00000231  00000-0  35778-5 0  9995,2 49411  53.2194 276.5895 0001803 122.3949 237.7218 15.08831960115771,6917.905,95.438,541.017,538.523,0.0
49411.0,STARLINK-3162,PAYLOAD,2023-12-16 00:37:44,15.08829231,0.000193,53.218,276.2904,116.6712,243.4478,5.4176e-05,5.74e-06,0.0,0 STARLINK-3162,1 49411U 21104D   23350.02621246  .00000574  00000-0  54176-4 0  9996,2 49411  53.2180 276.2904 0001930 116.6712 243.4478 15.08829231116860,6917.913,95.438,541.113,538.443,0.0
49411.0,STARLINK-3162,PAYLOAD,2023-12-17 02:03:54,15.08842947,0.0001798,53.2175,271.5309,103.4175,256.7017,0.00011993,1.621e-05,0.0,0 STARLINK-3162,1 49411U 21104D   23351.08604877  .00001621  00000-0  11993-3 0  9997,2 49411  53.2175 271.5309 0001798 103.4175 256.7017 15.08842947117024,6917.871,95.437,540.98,538.493,0.0
49411.0,STARLINK-3162,PAYLOAD,2023-12-17 22:43:55,15.08837394,0.0001655,53.217,267.6657,107.3005,252.8169,0.0004585,7.016e-05,0.0,0 STARLINK-3162,1 49411U 21104D   23351.94717135  .00007016  00000-0  45850-3 0  9997,2 49411  53.2170 267.6657 0001655 107.3005 252.8169 15.08837394116077,6917.888,95.438,540.898,538.608,0.0
49411.0,STARLINK-3162,PAYLOAD,2023-12-18 01:54:40,15.08860162,0.0002035,53.2169,267.0716,130.9326,229.1843,0.00030787,4.618e-05,0.0,0 STARLINK-3162,1 49411U 21104D   23352.07963789  .00004618  00000-0  30787-3 0  9998,2 49411  53.2169 267.0716 0002035 130.9326 229.1843 15.08860162117173,6917.819,95.436,541.092,538.276,0.0
49411.0,STARLINK-3162,PAYLOAD,2023-12-18 22:34:42,15.08835251,0.0001689,53.2168,263.2063,112.206,247.9111,-9.5015e-05,-1.8e-05,0.0,0 STARLINK-3162,1 49411U 21104D   23352.94077250 -.00001800  00000-0 -95015-4 0  9991,2 49411  53.2168 263.2063 0001689 112.2060 247.9111 15.08835251116229,6917.895,95.438,540.928,538.591,0.0
49411.0,STARLINK-3162,PAYLOAD,2023-12-19 01:45:29,15.08835096,0.0001399,53.2164,262.6084,101.3636,258.7513,-9.0542e-05,-1.728e-05,0.0,0 STARLINK-3162,1 49411U 21104D   23353.07325300 -.00001728  00000-0 -90542-4 0  9997,2 49411  53.2164 262.6084 0001399 101.3636 258.7513 15.08835096117322,6917.895,95.438,540.728,538.793,0.0
49411.0,STARLINK-3162,PAYLOAD,2023-12-20 01:36:15,15.08848161,0.0001578,53.216,258.1488,79.7693,280.3477,0.00025586,3.787e-05,0.0,0 STARLINK-3162,1 49411U 21104D   23354.06685179  .00003787  00000-0  25586-3 0  9990,2 49411  53.2160 258.1488 0001578  79.7693 280.3477 15.08848161117479,6917.855,95.437,540.812,538.629,0.0
49411.0,STARLINK-3162,PAYLOAD,2023-12-20 19:05:30,15.08844899,0.0002324,53.2181,254.8762,57.1922,302.9294,0.0003205,4.817e-05,0.0,0 STARLINK-3162,1 49411U 21104D   23354.79549698  .00004817  00000-0  32050-3 0  9994,2 49411  53.2181 254.8762 0002324  57.1922 302.9294 15.08844899117589,6917.865,95.437,541.338,538.123,0.0
